0 OBJECT C
1 54684U 22167C   23100.98106435  .00015974  00000-0  92382-3 0  9990
2 54684  97.5505 239.1417 0014403 202.6298 276.2772 15.12262797 18518
0 TEVEL 5
1 50998U 22002Q   23100.94658019  .00022824  00000-0  96880-3 0  9997
2 50998  97.4387 168.7919 0010911 107.8565  65.6260 15.23040082 68549
0 TEVEL 6
1 50999U 22002R   23100.94522403  .00022743  00000-0  96523-3 0  9999
2 50999  97.4387 168.7865 0011013 108.7384  65.1295 15.23044212 68545
0 TEVEL 4
1 51063U 22002CH  23100.91305933  .00021880  00000-0  95166-3 0  9999
2 51063  97.4407 168.4646 0009782 111.7468   2.8294 15.22231527 68512
0 TEVEL 7
1 51062U 22002CG  23100.90911331  .00022004  00000-0  95578-3 0  9998
2 51062  97.4408 168.4725 0010029 112.3459   2.7372 15.22271844 68515
0 ISS (ZARYA)
1 25544U 98067A   23100.89387752  .00013037  00000-0  23865-3 0  9996
2 25544  51.6390 302.0001 0006416 178.7555 256.3878 15.49670139391352
0 TEVEL 3
1 50988U 22002E   23100.88656814  .00021999  00000-0  95428-3 0  9999
2 50988  97.4396 168.4221 0009901 113.2902 334.6750 15.22320279 68512
0 TEVEL 2
1 51069U 22002CP  23100.88291477  .00022135  00000-0  96011-3 0  9992
2 51069  97.4393 168.3928 0009699 110.8479 306.8940 15.22322308 68516
0 XW-3 (CAS 9)
1 50466U 21131B   23100.85618387  .00000909  00000-0  30992-3 0  9995
2 50466  98.5527 182.6137 0003832 358.1665   1.9508 14.38815597 67677
0 AO-92
1 43137U 18004AC  23100.85225224  .00037947  00000-0  91015-3 0  9996
2 43137  97.3318 179.5380 0005458  34.8711 325.2893 15.41279392291917
0 XW-2D
1 40907U 15049J   23100.84361890  .00018129  00000-0  70036-3 0  9994
2 40907  97.4949 108.1993 0012680  42.2589  41.7925 15.26235740418200
0 XW-2C
1 40906U 15049H   23100.81179856  .00015260  00000-0  61861-3 0  9998
2 40906  97.4962 107.7999 0013596  47.4979  35.3778 15.24652511418125
0 ZHUHAI-1 01
1 42761U 17034D   23100.80701019  .00009944  00000-0  51629-3 0  9999
2 42761  43.0155 128.4674 0011118  20.9459 148.2239 15.16186063321410
0 CSS (TIANHE-1)
1 48274U 21035A   23100.80009490  .00029642  00000-0  30474-3 0  9996
2 48274  41.4737 206.6690 0003377 312.3208 187.5218 15.64223222111296
0 TEVEL 8
1 50989U 22002F   23100.77976972  .00022053  00000-0  95839-3 0  9996
2 50989  97.4419 168.3697 0010060 112.0432  23.6465 15.22255704 68493
0 XW-2A
1 40903U 15049E   23100.66299681  .00557090  14278-3  98410-3 0  9994
2 40903  97.1116 168.7981 0003299 189.4148 321.8100 16.01974461425747
0 ZHUHAI-1 02
1 42759U 17034B   23100.58687275  .00009937  00000-0  51686-3 0  9993
2 42759  43.0158 131.1385 0010103  17.5941 124.9651 15.16131018321375
0 ES'HAIL 2
1 43700U 18090A   23100.55209229  .00000149  00000-0  00000-0 0  9996
2 43700   0.0160 205.5680 0001351 201.8951  15.5919  1.00270245 16003
0 NEXUS
1 43937U 19003F   23100.54579717  .00055691  00000-0  11437-2 0  9994
2 43937  97.0959 128.8982 0016491 156.8386 203.3611 15.45681527235575
0 XW-2F
1 40910U 15049M   23100.51781766  .00032716  00000-0  10026-2 0  9990
2 40910  97.4675 112.7351 0010613  21.0467 129.8623 15.33668109418506
0 XW-2B
1 40911U 15049N   23100.51469560  .00018146  00000-0  70529-3 0  9992
2 40911  97.4927 108.3452 0012681  44.5438 106.6508 15.26031974418034
0 XW-2E
1 40909U 15049L   23100.48369248  .00033040  00000-0  99385-3 0  9998
2 40909  97.4585 113.4840 0009532  21.2073 135.9927 15.34268228418748
0 LILACSAT 2
1 40908U 15049K   23100.48055497  .00008064  00000-0  38931-3 0  9993
2 40908  97.5259 103.7671 0016187  68.7961  83.3584 15.18815583417519
0 NAYIF 1
1 42017U 17008BX  23100.47720024  .00127999  00000-0  16033-2 0  9994
2 42017  97.2190 169.8259 0003874 228.4192 131.6733 15.59336763342858
0 SAUDISAT 1C
1 27607U 02058C   23100.46651327  .00001676  00000-0  24613-3 0  9996
2 27607  64.5527 112.5155 0074569 238.2235 121.1590 14.77080029 92221
0 JAS 2
1 24278U 96046B   23100.45908629 -.00000020  00000-0  17432-4 0  9991
2 24278  98.5247  88.2592 0349424 232.4910 124.3992 13.53140995315774
0 OSCAR 7
1 07530U 74089B   23100.45815480 -.00000030  00000-0  99861-4 0  9995
2 07530 101.9444  86.6874 0012102 191.6841 327.0526 12.53663081214686
0 DIWATA 2B
1 43678U 18084H   23100.44514777  .00002510  00000-0  24597-3 0  9992
2 43678  98.0093 243.1016 0010337  31.9165 328.2631 14.93163237242153
0 TEVEL 1
1 51013U 22002AF  23100.44091731  .00022265  00000-0  96735-3 0  9991
2 51013  97.4397 167.9338 0009838 113.9807   9.9796 15.22264204 68445
0 JY1SAT
1 43803U 18099AX  23100.35927956  .00006120  00000-0  49620-3 0  9990
2 43803  97.5753 164.7049 0013019 344.0891  15.9921 14.99968181237522
0 EYESAT A
1 22825U 93061C   23100.35142071  .00000173  00000-0  84424-4 0  9994
2 22825  98.8497 142.1222 0007326 265.1010  94.9336 14.30279621540595
0 FUNCUBE 1
1 39444U 13066AE  23100.33622619  .00005471  00000-0  61592-3 0  9991
2 39444  97.6665  66.9291 0055125 134.9729 225.5976 14.85932564505565
0 BREEZE-KM R/B
1 44909U 19096E   23100.28256272  .00000038  00000-0  10951-3 0  9991
2 44909  82.5257  33.0604 0217326 346.0593  13.4567 12.79719864153474
0 AO-91
1 43017U 17073E   23100.22660266  .00008324  00000-0  59424-3 0  9993
2 43017  97.6388 347.2607 0234963 293.7272  63.9454 14.85146732291099
0 AO-95
1 43770U 18099N   23100.15984728  .00005523  00000-0  45900-3 0  9994
2 43770  97.5772 163.5423 0012916   0.4606 359.6627 14.99059782237418
0 UVSQ-SAT
1 47438U 21006AB  23100.11114822  .00015663  00000-0  68393-3 0  9994
2 47438  97.3915 158.2761 0008871 326.2215  33.8456 15.22175911122285
0 LAPAN A2
1 40931U 15052B   23099.35982249  .00001508  00000-0  11919-3 0  9993
2 40931   5.9978 217.8910 0013229  37.4466 322.6590 14.77146143407165
0 MT-CUBE-2
1 53106U 22080B   23088.05176028 -.00000003  00000-0  00000-0 0  9991
2 53106  70.1795 347.5677 0008286 204.3079 155.7190  6.42557135 16603
0 XW-4 (CAS-10)
1 54816U 21035C   23072.25043904  .02330371  77621-5  12756-2 0  9996
2 54816  41.5077   9.4914 0017840 162.4710 197.7314 16.18206266 13316
